{
  "type": "FeatureCollection",
  "features": [
    {
      "type": "Feature",
      "properties": {
        "norad_id": 66469,
        "name": "STARLINK-35451",
        "group": "last-30-days",
        "lat": 16.074895803074337,
        "lon": 122.96778144289823,
        "alt_km": 412.8900920727665,
        "timestamp": "2025-12-06T22:38:41.507847+00:00",
        "meta_object_name": "STARLINK-35451",
        "meta_object_id": "2025-262P",
        "meta_epoch": "2025-12-06T14:00:01.999872",
        "meta_mean_motion": 15.50692381,
        "meta_eccentricity": 0.00010984,
        "meta_inclination": 43.0006,
        "meta_ra_of_asc_node": 107.0624,
        "meta_arg_of_pericenter": 266.3329,
        "meta_mean_anomaly": 264.6744,
        "meta_ephemeris_type": 0,
        "meta_classification_type": "U",
        "meta_norad_cat_id": 66469,
        "meta_element_set_no": 999,
        "meta_rev_at_epoch": 464,
        "meta_bstar": -0.0032293439,
        "meta_mean_motion_dot": -0.00186103,
        "meta_mean_motion_ddot": 0,
        "tle_line1": "1 66469U 25262P   25340.58335648 -.00186103  00000+0 -32293-2 0  9995",
        "tle_line2": "2 66469  43.0006 107.0624 0001098 266.3329 264.6744 15.50692381  4642"
      },
      "geometry": {
        "type": "Point",
        "coordinates": [
          122.96778144289823,
          16.074895803074337
        ]
      }
    },
    {
      "type": "Feature",
      "properties": {
        "norad_id": 66470,
        "name": "STARLINK-35655",
        "group": "last-30-days",
        "lat": 13.624166048176207,
        "lon": 120.04112772571774,
        "alt_km": 413.34907149184346,
        "timestamp": "2025-12-06T22:38:41.507859+00:00",
        "meta_object_name": "STARLINK-35655",
        "meta_object_id": "2025-262Q",
        "meta_epoch": "2025-12-06T14:00:01.999872",
        "meta_mean_motion": 15.50735811,
        "meta_eccentricity": 0.00015908,
        "meta_inclination": 43.0006,
        "meta_ra_of_asc_node": 107.0729,
        "meta_arg_of_pericenter": 279.2543,
        "meta_mean_anomaly": 248.0227,
        "meta_ephemeris_type": 0,
        "meta_classification_type": "U",
        "meta_norad_cat_id": 66470,
        "meta_element_set_no": 999,
        "meta_rev_at_epoch": 464,
        "meta_bstar": -0.0061836672,
        "meta_mean_motion_dot": -0.00349352,
        "meta_mean_motion_ddot": 0,
        "tle_line1": "1 66470U 25262Q   25340.58335648 -.00349352  00000+0 -61837-2 0  9990",
        "tle_line2": "2 66470  43.0006 107.0729 0001590 279.2543 248.0227 15.50735811  4646"
      },
      "geometry": {
        "type": "Point",
        "coordinates": [
          120.04112772571774,
          13.624166048176207
        ]
      }
    },
    {
      "type": "Feature",
      "properties": {
        "norad_id": 66471,
        "name": "STARLINK-35569",
        "group": "last-30-days",
        "lat": 14.8244178368079,
        "lon": 121.46076707917767,
        "alt_km": 413.09037345606885,
        "timestamp": "2025-12-06T22:38:41.507870+00:00",
        "meta_object_name": "STARLINK-35569",
        "meta_object_id": "2025-262R",
        "meta_epoch": "2025-12-06T14:00:01.999872",
        "meta_mean_motion": 15.50636933,
        "meta_eccentricity": 0.00010684,
        "meta_inclination": 43.0005,
        "meta_ra_of_asc_node": 107.0678,
        "meta_arg_of_pericenter": 270.4212,
        "meta_mean_anomaly": 258.7227,
        "meta_ephemeris_type": 0,
        "meta_classification_type": "U",
        "meta_norad_cat_id": 66471,
        "meta_element_set_no": 999,
        "meta_rev_at_epoch": 464,
        "meta_bstar": -0.0026529673,
        "meta_mean_motion_dot": -0.00153281,
        "meta_mean_motion_ddot": 0,
        "tle_line1": "1 66471U 25262R   25340.58335648 -.00153281  00000+0 -26530-2 0  9996",
        "tle_line2": "2 66471  43.0005 107.0678 0001068 270.4212 258.7227 15.50636933  4648"
      },
      "geometry": {
        "type": "Point",
        "coordinates": [
          121.46076707917767,
          14.8244178368079
        ]
      }
    },
    {
      "type": "Feature",
      "properties": {
        "norad_id": 66472,
        "name": "STARLINK-35567",
        "group": "last-30-days",
        "lat": 17.310567082733215,
        "lon": 124.49052261796155,
        "alt_km": 412.7858081780041,
        "timestamp": "2025-12-06T22:38:41.507880+00:00",
        "meta_object_name": "STARLINK-35567",
        "meta_object_id": "2025-262S",
        "meta_epoch": "2025-12-06T14:00:01.999872",
        "meta_mean_motion": 15.50620655,
        "meta_eccentricity": 0.00012014,
        "meta_inclination": 43.0005,
        "meta_ra_of_asc_node": 107.0583,
        "meta_arg_of_pericenter": 270.0365,
        "meta_mean_anomaly": 262.9488,
        "meta_ephemeris_type": 0,
        "meta_classification_type": "U",
        "meta_norad_cat_id": 66472,
        "meta_element_set_no": 999,
        "meta_rev_at_epoch": 464,
        "meta_bstar": -0.002242162,
        "meta_mean_motion_dot": -0.00129909,
        "meta_mean_motion_ddot": 0,
        "tle_line1": "1 66472U 25262S   25340.58335648 -.00129909  00000+0 -22422-2 0  9993",
        "tle_line2": "2 66472  43.0005 107.0583 0001201 270.0365 262.9488 15.50620655  4648"
      },
      "geometry": {
        "type": "Point",
        "coordinates": [
          124.49052261796155,
          17.310567082733215
        ]
      }
    },
    {
      "type": "Feature",
      "properties": {
        "norad_id": 66473,
        "name": "STARLINK-35568",
        "group": "last-30-days",
        "lat": 18.540593927064272,
        "lon": 126.04045874746849,
        "alt_km": 412.5731157573882,
        "timestamp": "2025-12-06T22:38:41.507890+00:00",
        "meta_object_name": "STARLINK-35568",
        "meta_object_id": "2025-262T",
        "meta_epoch": "2025-12-06T14:00:01.999872",
        "meta_mean_motion": 15.50628037,
        "meta_eccentricity": 0.00013853,
        "meta_inclination": 43.0005,
        "meta_ra_of_asc_node": 107.0533,
        "meta_arg_of_pericenter": 276.8898,
        "meta_mean_anomaly": 258.0124,
        "meta_ephemeris_type": 0,
        "meta_classification_type": "U",
        "meta_norad_cat_id": 66473,
        "meta_element_set_no": 999,
        "meta_rev_at_epoch": 464,
        "meta_bstar": -0.0024763781,
        "meta_mean_motion_dot": -0.00143242,
        "meta_mean_motion_ddot": 0,
        "tle_line1": "1 66473U 25262T   25340.58335648 -.00143242  00000+0 -24764-2 0  9991",
        "tle_line2": "2 66473  43.0005 107.0533 0001385 276.8898 258.0124 15.50628037  4647"
      },
      "geometry": {
        "type": "Point",
        "coordinates": [
          126.04045874746849,
          18.540593927064272
        ]
      }
    },
    {
      "type": "Feature",
      "properties": {
        "norad_id": 66474,
        "name": "STARLINK-35620",
        "group": "last-30-days",
        "lat": 19.720604549771014,
        "lon": 127.56295052087613,
        "alt_km": 412.1491176950203,
        "timestamp": "2025-12-06T22:38:41.507900+00:00",
        "meta_object_name": "STARLINK-35620",
        "meta_object_id": "2025-262U",
        "meta_epoch": "2025-12-06T14:00:01.999872",
        "meta_mean_motion": 15.50593737,
        "meta_eccentricity": 0.00013261,
        "meta_inclination": 43.0005,
        "meta_ra_of_asc_node": 107.0472,
        "meta_arg_of_pericenter": 276.5334,
        "meta_mean_anomaly": 260.2008,
        "meta_ephemeris_type": 0,
        "meta_classification_type": "U",
        "meta_norad_cat_id": 66474,
        "meta_element_set_no": 999,
        "meta_rev_at_epoch": 464,
        "meta_bstar": 0.00034378926,
        "meta_mean_motion_dot": 0.00019888,
        "meta_mean_motion_ddot": 0,
        "tle_line1": "1 66474U 25262U   25340.58335648  .00019888  00000+0  34379-3 0  9992",
        "tle_line2": "2 66474  43.0005 107.0472 0001326 276.5334 260.2008 15.50593737  4641"
      },
      "geometry": {
        "type": "Point",
        "coordinates": [
          127.56295052087613,
          19.720604549771014
        ]
      }
    },
    {
      "type": "Feature",
      "properties": {
        "norad_id": 66475,
        "name": "STARLINK-35538",
        "group": "last-30-days",
        "lat": 20.949789551671817,
        "lon": 129.19486009904284,
        "alt_km": 412.30488094197426,
        "timestamp": "2025-12-06T22:38:41.507924+00:00",
        "meta_object_name": "STARLINK-35538",
        "meta_object_id": "2025-262V",
        "meta_epoch": "2025-12-06T14:00:01.999872",
        "meta_mean_motion": 15.5059098,
        "meta_eccentricity": 0.00014511,
        "meta_inclination": 43.0004,
        "meta_ra_of_asc_node": 107.0436,
        "meta_arg_of_pericenter": 269.092,
        "meta_mean_anomaly": 269.645,
        "meta_ephemeris_type": 0,
        "meta_classification_type": "U",
        "meta_norad_cat_id": 66475,
        "meta_element_set_no": 999,
        "meta_rev_at_epoch": 464,
        "meta_bstar": -0.00096528521,
        "meta_mean_motion_dot": -0.00056586,
        "meta_mean_motion_ddot": 0,
        "tle_line1": "1 66475U 25262V   25340.58335648 -.00056586  00000+0 -96529-3 0  9996",
        "tle_line2": "2 66475  43.0004 107.0436 0001451 269.0920 269.6450 15.50590980  4649"
      },
      "geometry": {
        "type": "Point",
        "coordinates": [
          129.19486009904284,
          20.949789551671817
        ]
      }
    }
  ]
}